{
  "norad_id": 53981,
  "name": "STARLINK-5149",
  "history": [
    {
      "epoch": "2026-03-28T08:26:16.144800",
      "apogee_km": 540.6821443747585,
      "perigee_km": 538.8295326726011,
      "latitude_deg": -50.254022796279564,
      "longitude_deg": -28.14872800000012,
      "semi_major_axis_km": 6917.8928385236795,
      "eccentricity": 0.0001339,
      "inclination_deg": 53.2182,
      "raan_deg": 120.121,
      "arg_perigee_deg": 89.3415,
      "mean_anomaly_deg": 270.773,
      "mean_motion_rev_day": 15.08835927
    }
  ]
}