{"fetched_at":"2026-03-29T02:12:04Z","count":15717,"tles":[{"name":"STARLINK-5149","line1":"1 53981U 22125T   26087.35157575 -.00001184  00000+0 -56315-4 0  9998","line2":"2 53981  53.2182 120.1210 0001339  89.3415 270.7730 15.08835927192424","category":"Starlink"}]}